AIST-2T 1               
1 67253U 25313F   26150.67994279  .00035545  00000+0  42584-3 0  9991
2 67253  97.0841 228.3009 0006953 260.2392  99.8081 15.60842720 23897
AIST-2T 2               
1 67254U 25313G   26150.19863224  .00045303  00000+0  54245-3 0  9994
2 67254  97.0858 227.7432 0007889 251.0389 109.0014 15.60801601 23806
2025-313H               
1 67255U 25313H   26150.64981523  .00003154  00000+0  20307-3 0  9998
2 67255  97.2874 219.4959 0069734  35.9009 324.6875 15.07031188 23013
SITRO-AIS-57            
1 67256U 25313J   26150.67029700  .00012055  00000+0  51595-3 0  9995
2 67256  97.3938 225.5329 0016999  67.9438 292.3602 15.22820508 23288
SITRO-AIS-59            
1 67257U 25313K   26150.67259816  .00011641  00000+0  49948-3 0  9998
2 67257  97.3944 225.5431 0016858  69.8380 290.4668 15.22748215 23286
SITRO-AIS-58            
1 67258U 25313L   26150.13956755  .00013626  00000+0  58227-3 0  9991
2 67258  97.3938 225.0257 0016799  70.7091 289.5961 15.22846912 23205
2025-313M               
1 67259U 25313M   26150.13257487  .00018284  00000+0  75261-3 0  9990
2 67259  97.3981 225.2814 0015638  69.1447 291.1464 15.24066398 23215
SITRO-AIS-60            
1 67260U 25313N   26150.17844526  .00009854  00000+0  43436-3 0  9994
2 67260  97.3955 225.0013 0015103  70.4541 289.8324 15.21898756 23200
2025-313P               
1 67261U 25313P   26150.63717247  .00022146  00000+0  86693-3 0  9996
2 67261  97.3979 225.9779 0014642  67.0493 293.2289 15.25725040 23309
2025-313Q               
1 67262U 25313Q   26150.68321006  .00013622  00000+0  57008-3 0  9993
2 67262  97.3948 225.6911 0015618  68.8817 291.4088 15.23572560 23294
DCS-1                   
1 67263U 25313R   26150.77383003  .00012264  00000+0  52106-3 0  9994
2 67263  97.3960 225.7613 0015852  68.5875 291.7051 15.23084665 23309
KOWSAR 1.5              
1 67264U 25313S   26150.43302126  .00009074  00000+0  39781-3 0  9994
2 67264  97.4030 225.4270 0016382  74.7667 285.5379 15.22092741 23242
SITRO-TD-4              
1 67265U 25313T   26150.64471987  .00011509  00000+0  49020-3 0  9993
2 67265  97.3939 225.5868 0015824  69.7414 290.5522 15.23016143 23281
SITRO-AIS-65            
1 67266U 25313U   26150.44357547  .00013127  00000+0  55730-3 0  9990
2 67266  97.3966 225.4538 0015686  69.4452 290.8467 15.23095974 23257
2025-313V               
1 67267U 25313V   26150.74527084  .00014186  00000+0  59287-3 0  9996
2 67267  97.3949 225.7658 0015063  74.3750 285.9148 15.23617180 23306
ZORKY-2M 7              
1 67268U 25313W   26150.67694691  .00009380  00000+0  40770-3 0  9995
2 67268  97.3955 225.5590 0016192  69.5813 290.7161 15.22377370 23286
2025-313X               
1 67269U 25313X   26150.63780231  .00017373  00000+0  70861-3 0  9993
2 67269  97.3972 225.8158 0015085  67.2714 293.0116 15.24393736 23297
SITRO-TD-3              
1 67270U 25313Y   26150.64216219  .00011812  00000+0  50190-3 0  9991
2 67270  97.3949 225.6099 0015804  69.4978 290.7953 15.23089489 23288
2025-313Z               
1 67271U 25313Z   26150.66383735  .00005641  00000+0  25332-3 0  9995
2 67271  97.3946 225.4138 0016398  66.5138 293.7820 15.21441146 23278
2025-313AA              
1 67272U 25313AA  26150.66760080  .00013282  00000+0  55345-3 0  9995
2 67272  97.3951 225.7122 0015431  69.4195 290.8696 15.23728661 23296
2025-313AB              
1 67273U 25313AB  26150.42188697  .00004609  00000+0  21016-3 0  9999
2 67273  97.3963 225.1636 0015871  75.7219 284.5778 15.21020894 23235
2025-313AC              
1 67274U 25313AC  26150.68155125  .00009222  00000+0  40202-3 0  9992
2 67274  97.3940 225.5360 0016073  69.4112 290.8847 15.22283314 23287
2025-313AD              
1 67275U 25313AD  26150.67385094  .00008918  00000+0  38805-3 0  9999
2 67275  97.3918 225.5017 0015162  72.8629 287.4266 15.22368380 23285
2025-313AE              
1 67276U 25313AE  26150.14608052  .00009987  00000+0  43380-3 0  9995
2 67276  97.3913 224.9779 0015267  73.8953 286.3963 15.22395742 23202
2025-313AF              
1 67277U 25313AF  26150.14812059  .00008951  00000+0  38971-3 0  9990
2 67277  97.3919 224.9880 0015159  75.7642 284.5277 15.22348208 23201
2025-313AG              
1 67278U 25313AG  26150.14011431  .00009161  00000+0  39761-3 0  9998
2 67278  97.3905 224.9915 0016187  73.0137 287.2872 15.22431605 23214
GALAPAGOS-UTE-SWSU      
1 67279U 25313AH  26150.66127341  .00009201  00000+0  39783-3 0  9993
2 67279  97.3932 225.5499 0015532  69.0790 291.2107 15.22570372 23280
2025-313AJ              
1 67280U 25313AJ  26150.66103039  .00006382  00000+0  27968-3 0  9992
2 67280  97.4007 225.6817 0014641  66.8464 293.4313 15.22251446 23285
2025-313AK              
1 67281U 25313AK  26150.65152421  .00006417  00000+0  28054-3 0  9997
2 67281  97.3889 225.4697 0013379  66.4997 293.7643 15.22347532 23282
2025-313AL              
1 67282U 25313AL  26150.67288581  .00007394  00000+0  31826-3 0  9993
2 67282  97.3935 225.6752 0012017  66.3640 293.8857 15.22841506 23290
HORS 5                  
1 67283U 25313AM  26150.62147431  .00009785  00000+0  40980-3 0  9994
2 67283  97.3945 225.7620 0011644  65.6538 294.5913 15.23684780 23291
LOBACHEVSKY (RS83S)     
1 67284U 25313AN  26150.15886834  .00008145  00000+0  35179-3 0  9993
2 67284  97.3930 225.1319 0012080  67.6879 292.5638 15.22689040 23217
NASBSAT-2               
1 67285U 25313AP  26150.63265828  .00009281  00000+0  39137-3 0  9991
2 67285  97.3928 225.7060 0011635  67.5784 292.6684 15.23468172 23295
MULE 4T                 
1 67286U 25313AQ  26150.67595200  .00010837  00000+0  45017-3 0  9999
2 67286  97.3944 225.8463 0010880  63.0538 297.1810 15.23941145 23300
LUCA (RS90S)            
1 67287U 25313AR  26150.65719184  .00011339  00000+0  46694-3 0  9997
2 67287  97.3941 225.8710 0010778  64.6462 295.5890 15.24222822 23307
2025-313AS              
1 67288U 25313AS  26150.65991078  .00006561  00000+0  28181-3 0  9994
2 67288  97.3935 225.6938 0012687  56.9986 303.2468 15.22946696 23293
NASBSAT-1               
1 67289U 25313AT  26150.65268983  .00016951  00000+0  66950-3 0  9997
2 67289  97.3943 226.0281 0010340  64.9646 295.2665 15.25533955 23310
SAKHACUBE-CHOLBON (RS1*)
1 67290U 25313AU  26150.44079064  .00014093  00000+0  57422-3 0  9995
2 67290  97.3939 225.7012 0010447  64.5723 295.6594 15.24529671 23274
QMR-KWT-2 (RS95S)       
1 67291U 25313AV  26150.18219484  .00020165  00000+0  79009-3 0  9991
2 67291  97.3945 225.5858 0009980  65.1634 295.0641 15.25768544 23245
SITRO-AIS-64            
1 67292U 25313AW  26150.43075914  .00014536  00000+0  59036-3 0  9991
2 67292  97.3946 225.7226 0010091  64.5814 295.6467 15.24634157 23272
SCORPION (RS89S)        
1 67293U 25313AX  26150.80006553  .00005401  00000+0  23455-3 0  9993
2 67293  97.3946 225.8338 0012227  55.0365 305.2018 15.22661505 23317
SITRO-AIS-63            
1 67294U 25313AY  26150.62377064  .00013472  00000+0  54664-3 0  9995
2 67294  97.3950 225.9285 0010056  64.6344 295.5934 15.24684122 23305
ZORKIY-2M-5             
1 67295U 25313AZ  26150.13684458  .00010765  00000+0  44775-3 0  9994
2 67295  97.3947 225.3470 0011440  56.6975 303.5356 15.23891815 23228
SITRO-AIS-62            
1 67296U 25313BA  26150.74507532  .00013224  00000+0  53432-3 0  9992
2 67296  97.3952 226.0778 0009897  64.9011 295.3252 15.24831657 23323
SITRO-AIS-61            
1 67297U 25313BB  26150.67327704  .00013345  00000+0  53820-3 0  9991
2 67297  97.3957 226.0256 0009681  66.8654 293.3603 15.24895169 23310
2025-313BC              
1 67298U 25313BC  26150.64258204  .00158869  00000+0  33538-2 0  9991
2 67298  97.3881 227.6625 0003645  62.3107 297.8510 15.44589907 20553
2025-313BD              
1 67299U 25313BD  26150.81943688  .00176276  00000+0  34810-2 0  9994
2 67299  97.3865 228.0151 0002478  83.9513 276.2019 15.46486977 23461
TIANHUI 7               
1 67300U 25314A   26150.19497262  .00008296  00000+0  32805-3 0  9990
2 67300  97.4024 226.0387 0003447  31.4512 328.6932 15.25723814 23046
SHIJIAN-29A (SJ-29A)    
1 67302U 25315A   26150.73160887 -.00000047  00000+0  00000+0 0  9998
2 67302   3.3543  95.5325 0000964 203.8973 285.7038  1.00216463  1443
CSG-3                   
1 67304U 26001A   26150.51127106  .00000429  00000+0  60389-4 0  9990
2 67304  97.8884 334.3694 0001299  92.2998 267.8364 14.82155315 21844
STARLINK-36490          
1 67305U 26002A   26150.62769530  .00018398  00000+0  67616-3 0  9990
2 67305  43.0010 222.2345 0001825 277.0519  83.0125 15.27593372 23679
STARLINK-36488          
1 67306U 26002B   26150.54061786  .00019617  00000+0  72038-3 0  9999
2 67306  43.0017 223.3087 0001585 273.8332  86.2338 15.27585121 23597
STARLINK-36481          
1 67307U 26002C   26150.59190411  .00029430  00000+0  10754-2 0  9993
2 67307  42.9973 222.8335 0001478  53.2269 306.8718 15.27559698 23602
STARLINK-36449          
1 67308U 26002D   26150.58415542  .00020381  00000+0  74770-3 0  9993
2 67308  43.0031 222.7698 0001751 265.7697  94.2955 15.27597474 23661
STARLINK-36482          
1 67309U 26002E   26150.58029977  .00017911  00000+0  65862-3 0  9994
2 67309  43.0029 222.7406 0002029 251.7505 108.3126 15.27588232 23601
STARLINK-36491          
1 67310U 26002F   26150.53675053  .00020662  00000+0  75835-3 0  9991
2 67310  43.0028 223.2858 0004089 305.0829  54.9639 15.27571681 23592
STARLINK-36495          
1 67311U 26002G   26150.50463065  .00035273  00000+0  12844-2 0  9991
2 67311  43.0023 223.0265 0002833 248.8781 111.1768 15.27597828 23752
STARLINK-36485          
1 67312U 26002H   26150.55588630  .00020402  00000+0  74865-3 0  9993
2 67312  42.9983 222.5489 0001494 277.3175  82.7507 15.27589417 23607
STARLINK-36445          
1 67313U 26002J   26150.60985603  .00018323  00000+0  67386-3 0  9990
2 67313  43.0025 222.9700 0002683 297.9545  62.1035 15.27571043 23768
